NORAD_CAT_ID,OBJECT_NAME,OBJECT_TYPE,EPOCH,MEAN_MOTION,ECCENTRICITY,INCLINATION,RA_OF_ASC_NODE,ARG_OF_PERICENTER,MEAN_ANOMALY,BSTAR,MEAN_MOTION_DOT,MEAN_MOTION_DDOT,TLE_LINE0,TLE_LINE1,TLE_LINE2,SEMIMAJOR_AXIS,PERIOD,APOGEE,PERIGEE,DECAYED
52998.0,STARLINK-4254,PAYLOAD,2022-09-29 22:00:00,15.08822753,0.0001471,53.2179,335.9998,52.3792,303.4886,5.1402e-06,-2.06e-06,0.0,0 STARLINK-4254,1 52998U 22076N   22272.91667824 -.00000206  00000-0  51402-5 0  9994,2 52998  53.2179 335.9998 0001471  52.3792 303.4886 15.08822753  1306,6917.933000000001,95.439,540.816,538.78,0.0
52998.0,STARLINK-4254,PAYLOAD,2022-09-30 14:00:01,15.08824634,0.0001655,53.2181,333.0084,48.7744,330.267,0.0035665999999999,0.00056909,0.0,0 STARLINK-4254,1 52998U 22076N   22273.58334491  .00056909  00000-0  35666-2 0  9990,2 52998  53.2181 333.0084 0001655  48.7744 330.2670 15.08824634  1303,6917.927,95.439,540.937,538.6469999999998,0.0
52998.0,STARLINK-4254,PAYLOAD,2022-09-30 16:00:00,15.08836952,0.0001641999999999,53.2179,332.6342,46.5192,65.4184,0.0027748,0.00044146,0.0,0 STARLINK-4254,1 52998U 22076N   22273.66667824  .00044146  00000-0  27748-2 0  9990,2 52998  53.2179 332.6342 0001642  46.5192  65.4184 15.08836952 13701,6917.89,95.438,540.891,538.619,0.0
52998.0,STARLINK-4254,PAYLOAD,2022-09-30 22:00:00,15.08870561,0.0001479,53.2182,331.5104,51.1817,339.4651,-0.0021123,-0.00033776,0.0,0 STARLINK-4254,1 52998U 22076N   22273.91667824 -.00033776  00000-0 -21123-2 0  9998,2 52998  53.2182 331.5104 0001479  51.1817 339.4651 15.08870561  1303,6917.7869999999975,95.436,540.675,538.629,0.0
52998.0,STARLINK-4254,PAYLOAD,2022-10-01 06:00:00,15.08859095,0.0001456,53.2184,330.014,52.412,349.8434,-0.00027381,-4.645e-05,0.0,0 STARLINK-4254,1 52998U 22076N   22274.25001157 -.00004645  00000-0 -27381-3 0  9993,2 52998  53.2184 330.0140 0001456  52.4120 349.8434 15.08859095 13783,6917.821999999999,95.436,540.694,538.68,0.0
52998.0,STARLINK-4254,PAYLOAD,2022-10-01 14:00:01,15.08847856,0.0001675999999999,53.2183,328.5191,46.6165,7.2562,2.7825e-05,1.55e-06,0.0,0 STARLINK-4254,1 52998U 22076N   22274.58334491  .00000155  00000-0  27825-4 0  9993,2 52998  53.2183 328.5191 0001676  46.6165   7.2562 15.08847856  1302,6917.856,95.437,540.881,538.562,0.0
52998.0,STARLINK-4254,PAYLOAD,2022-10-01 22:00:00,15.08826624,0.0001618,53.2184,327.021,54.9903,10.4971,-0.001141,-0.00018394,0.0,0 STARLINK-4254,1 52998U 22076N   22274.91667824 -.00018394  00000-0 -11410-2 0  9996,2 52998  53.2184 327.0210 0001618  54.9903  10.4971 15.08826624  1307,6917.920999999999,95.438,540.906,538.6669999999998,0.0
52998.0,STARLINK-4254,PAYLOAD,2022-10-02 06:00:00,15.08835163,0.0001686,53.2185,325.525,57.5512,19.5005,-0.000748,-0.00012171,0.0,0 STARLINK-4254,1 52998U 22076N   22275.25001157 -.00012171  00000-0 -74800-3 0  9995,2 52998  53.2185 325.5250 0001686  57.5512  19.5005 15.08835163 13933,6917.895,95.438,540.927,538.594,0.0
52998.0,STARLINK-4254,PAYLOAD,2022-10-02 14:00:01,15.08808426,0.0001802,53.2183,324.03,51.1728,37.4694,0.0036724,0.00058594,0.0,0 STARLINK-4254,1 52998U 22076N   22275.58334491  .00058594  00000-0  36724-2 0  9990,2 52998  53.2183 324.0300 0001802  51.1728  37.4694 15.08808426  1303,6917.977,95.44,541.089,538.595,0.0
52998.0,STARLINK-4254,PAYLOAD,2022-10-02 22:00:00,15.088352100000002,0.0001631,53.2183,322.532,56.7185,43.5139,0.0019265999999999,0.00030503,0.0,0 STARLINK-4254,1 52998U 22076N   22275.91667824  .00030503  00000-0  19266-2 0  9998,2 52998  53.2183 322.5320 0001631  56.7185  43.5139 15.08835210 14044,6917.895,95.438,540.888,538.632,0.0
52998.0,STARLINK-4254,PAYLOAD,2022-10-03 14:00:01,15.08819173,0.0001803,53.2179,319.5411,49.5902,73.8438,0.0024004,0.000381,0.0,0 STARLINK-4254,1 52998U 22076N   22276.58334491  .00038100  00000-0  24004-2 0  9990,2 52998  53.2179 319.5411 0001803  49.5902  73.8438 15.08819173  1307,6917.944,95.439,541.056,538.562,0.0
52998.0,STARLINK-4254,PAYLOAD,2022-10-03 22:00:00,15.0883462,0.0001635,53.2179,318.043,55.7187,79.3188,0.0024697,0.00039231,0.0,0 STARLINK-4254,1 52998U 22076N   22276.91667824  .00039231  00000-0  24697-2 0  9990,2 52998  53.2179 318.0430 0001635  55.7187  79.3188 15.08834620  1306,6917.897,95.438,540.893,538.631,0.0
52998.0,STARLINK-4254,PAYLOAD,2022-10-04 14:00:01,15.08846015,0.0001831999999999,53.2174,315.0521,51.1813,107.0818,-0.00048072,-7.932e-05,0.0,0 STARLINK-4254,1 52998U 22076N   22277.58334491 -.00007932  00000-0 -48072-3 0  9994,2 52998  53.2174 315.0521 0001832  51.1813 107.0818 15.08846015  1304,6917.861999999999,95.437,540.994,538.46,0.0
52998.0,STARLINK-4254,PAYLOAD,2022-10-04 16:00:00,15.08867353,0.0001774999999999,53.2172,314.6776,51.3847,199.7734,-0.0040207,-0.0006376,0.0,0 STARLINK-4254,1 52998U 22076N   22277.66667824 -.00063760  00000-0 -40207-2 0  9994,2 52998  53.2172 314.6776 0001775  51.3847 199.7734 15.08867353 14301,6917.797,95.436,540.89,538.434,0.0
52998.0,STARLINK-4254,PAYLOAD,2022-10-04 22:00:00,15.08802688,0.0001579,53.2173,313.5540000000001,54.51,115.3603,0.0017393,0.00027473,0.0,0 STARLINK-4254,1 52998U 22076N   22277.91667824  .00027473  00000-0  17393-2 0  9991,2 52998  53.2173 313.5540 0001579  54.5100 115.3603 15.08802688  1303,6917.994000000002,95.44,540.952,538.7669999999998,0.0
52998.0,STARLINK-4254,PAYLOAD,2022-10-05 08:00:01,15.08829002,0.0001710999999999,53.2171,311.685,52.1048,222.2174,-0.0002912,-4.918e-05,0.0,0 STARLINK-4254,1 52998U 22076N   22278.33334491 -.00004918  00000-0 -29120-3 0  9992,2 52998  53.2171 311.6850 0001711  52.1048 222.2174 15.08829002 14402,6917.9140000000025,95.438,540.9630000000002,538.595,0.0
52998.0,STARLINK-4254,PAYLOAD,2022-10-05 14:00:01,15.08829671,0.0001737,53.2169,310.5632,47.6043,145.4686,0.00026767,3.973e-05,0.0,0 STARLINK-4254,1 52998U 22076N   22278.58335648  .00003973  00000-0  26767-3 0  9996,2 52998  53.2169 310.5632 0001737  47.6043 145.4686 15.08829671  1308,6917.9119999999975,95.438,540.979,538.575,0.0
52998.0,STARLINK-4254,PAYLOAD,2022-10-05 22:00:00,15.08799423,0.0001547,53.2169,309.0651,51.5428,153.0614,0.0032662,0.0005202,0.0,0 STARLINK-4254,1 52998U 22076N   22278.91667824  .00052020  00000-0  32662-2 0  9994,2 52998  53.2169 309.0651 0001547  51.5428 153.0614 15.08799423  1309,6918.004,95.44,540.94,538.799,0.0
52998.0,STARLINK-4254,PAYLOAD,2022-10-06 14:00:01,15.08806342,0.0001686,53.2167,306.0742,43.5498,184.2187,0.0028401999999999,0.00045162,0.0,0 STARLINK-4254,1 52998U 22076N   22279.58334491  .00045162  00000-0  28402-2 0  9995,2 52998  53.2167 306.0742 0001686  43.5498 184.2187 15.08806342  1307,6917.983,95.44,541.015,538.682,0.0
52998.0,STARLINK-4254,PAYLOAD,2022-10-06 22:42:55,15.08813129,0.0001508,53.2167,304.4422,50.1194,351.1437,0.0039843,0.00063648,0.0,0 STARLINK-4254,1 52998U 22076N   22279.94646991  .00063648  00000-0  39843-2 0  9996,2 52998  53.2167 304.4422 0001508  50.1194 351.1437 15.08813129  1308,6917.9630000000025,95.439,540.871,538.784,0.0
52998.0,STARLINK-4254,PAYLOAD,2022-10-07 00:00:00,15.08823114,0.0001536,53.2167,304.2017,51.2568,280.9894,0.0032409999999999,0.00051647,0.0,0 STARLINK-4254,1 52998U 22076N   22280.00001157  .00051647  00000-0  32410-2 0  9993,2 52998  53.2167 304.2017 0001536  51.2568 280.9894 15.08823114 14657,6917.932,95.439,540.86,538.734,0.0
52998.0,STARLINK-4254,PAYLOAD,2022-10-07 14:00:01,15.08841996,0.0001717,53.2166,301.5849,42.9317,219.6087,0.00020901,3.04e-05,0.0,0 STARLINK-4254,1 52998U 22076N   22280.58334491  .00003040  00000-0  20901-3 0  9993,2 52998  53.2166 301.5849 0001717  42.9317 219.6087 15.08841996 14740,6917.874,95.437,540.927,538.5509999999998,0.0
52998.0,STARLINK-4254,PAYLOAD,2022-10-07 22:00:00,15.08809962,0.0001649,53.2169,300.0866,51.392,222.7592,0.0028539,0.00045387,0.0,0 STARLINK-4254,1 52998U 22076N   22280.91667824  .00045387  00000-0  28539-2 0  9993,2 52998  53.2169 300.0866 0001649  51.3920 222.7592 15.08809962  1305,6917.972,95.439,540.9780000000002,538.696,0.0
52998.0,STARLINK-4254,PAYLOAD,2022-10-08 14:00:01,15.08836305,0.000188,53.2167,297.0954,48.4516,248.8547,-6.3714e-05,-1.302e-05,0.0,0 STARLINK-4254,1 52998U 22076N   22281.58334491 -.00001302  00000-0 -63714-4 0  9995,2 52998  53.2167 297.0954 0001880  48.4516 248.8547 15.08836305  1301,6917.892,95.438,541.057,538.456,0.0
52998.0,STARLINK-4254,PAYLOAD,2022-10-08 22:00:00,15.08801291,0.0001706,53.2169,295.5973,54.5246,254.3844,0.0033093,0.00052718,0.0,0 STARLINK-4254,1 52998U 22076N   22281.91667824  .00052718  00000-0  33093-2 0  9991,2 52998  53.2169 295.5973 0001706  54.5246 254.3844 15.08801291  1300,6917.999,95.44,541.044,538.683,0.0
52998.0,STARLINK-4254,PAYLOAD,2022-10-09 14:00:01,15.08865975,0.00018,53.2167,292.6058,47.7444,284.3281,-0.0022453,-0.0003587,0.0,0 STARLINK-4254,1 52998U 22076N   22282.58334491 -.00035870  00000-0 -22453-2 0  9996,2 52998  53.2167 292.6058 0001800  47.7444 284.3281 15.08865975  1306,6917.801,95.436,540.911,538.4209999999998,0.0
52998.0,STARLINK-4254,PAYLOAD,2022-10-09 22:00:00,15.08823698,0.0001633,53.2169,291.1078,55.3783,288.3122,0.0022378,0.0003549,0.0,0 STARLINK-4254,1 52998U 22076N   22282.91667824  .00035490  00000-0  22378-2 0  9994,2 52998  53.2169 291.1078 0001633  55.3783 288.3122 15.08823698 15094,6917.93,95.439,540.925,538.6659999999998,0.0
52998.0,STARLINK-4254,PAYLOAD,2022-10-10 00:00:00,15.0884332,0.0001684,53.217,290.7336,57.0635,19.5182,0.00019246,2.777e-05,0.0,0 STARLINK-4254,1 52998U 22076N   22283.00001157  .00002777  00000-0  19246-3 0  9999,2 52998  53.2170 290.7336 0001684  57.0635  19.5182 15.08843320  1302,6917.87,95.437,540.9,538.57,0.0
52998.0,STARLINK-4254,PAYLOAD,2022-10-10 14:00:01,15.08901153,0.0001853,53.2168,288.1106,48.7625,318.1051,-0.010643,-0.00166074,0.0,0 STARLINK-4254,1 52998U 22076N   22283.58334491 -.00166074  00000-0 -10643-1 0  9995,2 52998  53.2168 288.1106 0001853  48.7625 318.1051 15.08901153  1301,6917.693,95.434,540.84,538.2769999999998,0.0
